[
    {
        "CCSDS_OMM_VERS": "3.0",
        "COMMENT": "GENERATED VIA SPACE-TRACK.ORG API",
        "CREATION_DATE": "2024-08-11T03:26:15",
        "ORIGINATOR": "18 SPCS",
        "OBJECT_NAME": "OBJECT C",
        "OBJECT_ID": "2024-137C",
        "CENTER_NAME": "EARTH",
        "REF_FRAME": "TEME",
        "TIME_SYSTEM": "UTC",
        "MEAN_ELEMENT_THEORY": "SGP4",
        "EPOCH": "2024-08-11T01:49:51.305664",
        "MEAN_MOTION": "15.94989384",
        "ECCENTRICITY": "0.01495960",
        "INCLINATION": "42.9613",
        "RA_OF_ASC_NODE": "88.9493",
        "ARG_OF_PERICENTER": "317.4278",
        "MEAN_ANOMALY": "167.4985",
        "EPHEMERIS_TYPE": "0",
        "CLASSIFICATION_TYPE": "U",
        "NORAD_CAT_ID": "60354",
        "ELEMENT_SET_NO": "999",
        "REV_AT_EPOCH": "131",
        "BSTAR": "0.00178690000000",
        "MEAN_MOTION_DOT": "0.02421510",
        "MEAN_MOTION_DDOT": "0.0000083801000",
        "SEMIMAJOR_AXIS": "6666.481",
        "PERIOD": "90.283",
        "APOAPSIS": "388.074",
        "PERIAPSIS": "188.618",
        "OBJECT_TYPE": "UNKNOWN",
        "RCS_SIZE": "MEDIUM",
        "COUNTRY_CODE": "TBD",
        "LAUNCH_DATE": "2024-08-02",
        "SITE": "RLLC",
        "DECAY_DATE": null,
        "FILE": "4427714",
        "GP_ID": "264742256",
        "TLE_LINE0": "0 OBJECT C",
        "TLE_LINE1": "1 60354U 24137C   24224.07628826  .02421510  83801-5  17869-2 0  9991",
        "TLE_LINE2": "2 60354  42.9613  88.9493 0149596 317.4278 167.4985 15.94989384  1317"
    },
    {
        "CCSDS_OMM_VERS": "3.0",
        "COMMENT": "GENERATED VIA SPACE-TRACK.ORG API",
        "CREATION_DATE": "2024-08-11T01:36:14",
        "ORIGINATOR": "18 SPCS",
        "OBJECT_NAME": "ISS (ZARYA)",
        "OBJECT_ID": "1998-067A",
        "CENTER_NAME": "EARTH",
        "REF_FRAME": "TEME",
        "TIME_SYSTEM": "UTC",
        "MEAN_ELEMENT_THEORY": "SGP4",
        "EPOCH": "2024-08-11T00:48:29.691072",
        "MEAN_MOTION": "15.49884002",
        "ECCENTRICITY": "0.00056710",
        "INCLINATION": "51.6410",
        "RA_OF_ASC_NODE": "43.6177",
        "ARG_OF_PERICENTER": "184.3429",
        "MEAN_ANOMALY": "320.7845",
        "EPHEMERIS_TYPE": "0",
        "CLASSIFICATION_TYPE": "U",
        "NORAD_CAT_ID": "25544",
        "ELEMENT_SET_NO": "999",
        "REV_AT_EPOCH": "46705",
        "BSTAR": "0.00037620000000",
        "MEAN_MOTION_DOT": "0.00020992",
        "MEAN_MOTION_DDOT": "0.0000000000000",
        "SEMIMAJOR_AXIS": "6795.202",
        "PERIOD": "92.910",
        "APOAPSIS": "420.921",
        "PERIAPSIS": "413.214",
        "OBJECT_TYPE": "PAYLOAD",
        "RCS_SIZE": "LARGE",
        "COUNTRY_CODE": "ISS",
        "LAUNCH_DATE": "1998-11-20",
        "SITE": "TTMTR",
        "DECAY_DATE": null,
        "FILE": "4427711",
        "GP_ID": "264742252",
        "TLE_LINE0": "0 ISS (ZARYA)",
        "TLE_LINE1": "1 25544U 98067A   24224.03367698  .00020992  00000-0  37620-3 0  9999",
        "TLE_LINE2": "2 25544  51.6410  43.6177 0005671 184.3429 320.7845 15.49884002467059"
    },
    {
        "CCSDS_OMM_VERS": "3.0",
        "COMMENT": "GENERATED VIA SPACE-TRACK.ORG API",
        "CREATION_DATE": "2024-08-11T01:06:26",
        "ORIGINATOR": "18 SPCS",
        "OBJECT_NAME": "OBJECT M",
        "OBJECT_ID": "2022-098M",
        "CENTER_NAME": "EARTH",
        "REF_FRAME": "TEME",
        "TIME_SYSTEM": "UTC",
        "MEAN_ELEMENT_THEORY": "SGP4",
        "EPOCH": "2024-08-11T00:11:04.815168",
        "MEAN_MOTION": "15.76563753",
        "ECCENTRICITY": "0.00070400",
        "INCLINATION": "97.5209",
        "RA_OF_ASC_NODE": "336.9302",
        "ARG_OF_PERICENTER": "250.3112",
        "MEAN_ANOMALY": "212.4589",
        "EPHEMERIS_TYPE": "0",
        "CLASSIFICATION_TYPE": "U",
        "NORAD_CAT_ID": "53455",
        "ELEMENT_SET_NO": "999",
        "REV_AT_EPOCH": "11169",
        "BSTAR": "0.00224080000000",
        "MEAN_MOTION_DOT": "0.00370823",
        "MEAN_MOTION_DDOT": "0.0000000000000",
        "SEMIMAJOR_AXIS": "6718.322",
        "PERIOD": "91.338",
        "APOAPSIS": "344.917",
        "PERIAPSIS": "335.457",
        "OBJECT_TYPE": "UNKNOWN",
        "RCS_SIZE": "MEDIUM",
        "COUNTRY_CODE": "PRC",
        "LAUNCH_DATE": "2022-08-10",
        "SITE": "TSC",
        "DECAY_DATE": null,
        "FILE": "4427708",
        "GP_ID": "264742250",
        "TLE_LINE0": "0 OBJECT M",
        "TLE_LINE1": "1 53455U 22098M   24224.00769462  .00370823  00000-0  22408-2 0  9992",
        "TLE_LINE2": "2 53455  97.5209 336.9302 0007040 250.3112 212.4589 15.76563753111694"
    },
    {
        "CCSDS_OMM_VERS": "3.0",
        "COMMENT": "GENERATED VIA SPACE-TRACK.ORG API",
        "CREATION_DATE": "2024-08-11T01:46:14",
        "ORIGINATOR": "18 SPCS",
        "OBJECT_NAME": "STARLINK-2715",
        "OBJECT_ID": "2021-044BM",
        "CENTER_NAME": "EARTH",
        "REF_FRAME": "TEME",
        "TIME_SYSTEM": "UTC",
        "MEAN_ELEMENT_THEORY": "SGP4",
        "EPOCH": "2024-08-10T22:55:14.738016",
        "MEAN_MOTION": "16.35094049",
        "ECCENTRICITY": "0.00120320",
        "INCLINATION": "52.9930",
        "RA_OF_ASC_NODE": "98.6362",
        "ARG_OF_PERICENTER": "258.0194",
        "MEAN_ANOMALY": "233.6936",
        "EPHEMERIS_TYPE": "0",
        "CLASSIFICATION_TYPE": "U",
        "NORAD_CAT_ID": "48697",
        "ELEMENT_SET_NO": "999",
        "REV_AT_EPOCH": "17899",
        "BSTAR": "0.00204140000000",
        "MEAN_MOTION_DOT": "0.16433931",
        "MEAN_MOTION_DDOT": "0.0000121880000",
        "SEMIMAJOR_AXIS": "6557.023",
        "PERIOD": "88.068",
        "APOAPSIS": "186.777",
        "PERIAPSIS": "170.998",
        "OBJECT_TYPE": "PAYLOAD",
        "RCS_SIZE": "LARGE",
        "COUNTRY_CODE": "US",
        "LAUNCH_DATE": "2021-05-26",
        "SITE": "AFETR",
        "DECAY_DATE": null,
        "FILE": "4427713",
        "GP_ID": "264742254",
        "TLE_LINE0": "0 STARLINK-2715",
        "TLE_LINE1": "1 48697U 21044BM  24223.95503169  .16433931  12188-4  20414-2 0  9993",
        "TLE_LINE2": "2 48697  52.9930  98.6362 0012032 258.0194 233.6936 16.35094049178992"
    },
    {
        "CCSDS_OMM_VERS": "3.0",
        "COMMENT": "GENERATED VIA SPACE-TRACK.ORG API",
        "CREATION_DATE": "2024-08-10T22:56:16",
        "ORIGINATOR": "18 SPCS",
        "OBJECT_NAME": "FENGYUN 3C",
        "OBJECT_ID": "2013-052A",
        "CENTER_NAME": "EARTH",
        "REF_FRAME": "TEME",
        "TIME_SYSTEM": "UTC",
        "MEAN_ELEMENT_THEORY": "SGP4",
        "EPOCH": "2024-08-10T22:05:48.067872",
        "MEAN_MOTION": "14.16246249",
        "ECCENTRICITY": "0.00113470",
        "INCLINATION": "98.4312",
        "RA_OF_ASC_NODE": "220.6320",
        "ARG_OF_PERICENTER": "162.9953",
        "MEAN_ANOMALY": "197.1605",
        "EPHEMERIS_TYPE": "0",
        "CLASSIFICATION_TYPE": "U",
        "NORAD_CAT_ID": "39260",
        "ELEMENT_SET_NO": "999",
        "REV_AT_EPOCH": "56307",
        "BSTAR": "0.00022142000000",
        "MEAN_MOTION_DOT": "0.00000398",
        "MEAN_MOTION_DDOT": "0.0000000000000",
        "SEMIMAJOR_AXIS": "7216.213",
        "PERIOD": "101.677",
        "APOAPSIS": "846.266",
        "PERIAPSIS": "829.889",
        "OBJECT_TYPE": "PAYLOAD",
        "RCS_SIZE": "LARGE",
        "COUNTRY_CODE": "PRC",
        "LAUNCH_DATE": "2013-09-23",
        "SITE": "TSC",
        "DECAY_DATE": null,
        "FILE": "4427592",
        "GP_ID": "264741106",
        "TLE_LINE0": "0 FENGYUN 3C",
        "TLE_LINE1": "1 39260U 13052A   24223.92069523  .00000398  00000-0  22142-3 0  9994",
        "TLE_LINE2": "2 39260  98.4312 220.6320 0011347 162.9953 197.1605 14.16246249563074"
    },
    {
        "CCSDS_OMM_VERS": "3.0",
        "COMMENT": "GENERATED VIA SPACE-TRACK.ORG API",
        "CREATION_DATE": "2024-08-10T22:56:16",
        "ORIGINATOR": "18 SPCS",
        "OBJECT_NAME": "CZ-6A DEB",
        "OBJECT_ID": "2022-151FP",
        "CENTER_NAME": "EARTH",
        "REF_FRAME": "TEME",
        "TIME_SYSTEM": "UTC",
        "MEAN_ELEMENT_THEORY": "SGP4",
        "EPOCH": "2024-08-10T22:00:46.886112",
        "MEAN_MOTION": "13.75963958",
        "ECCENTRICITY": "0.02018170",
        "INCLINATION": "98.9493",
        "RA_OF_ASC_NODE": "199.2189",
        "ARG_OF_PERICENTER": "174.0873",
        "MEAN_ANOMALY": "186.2730",
        "EPHEMERIS_TYPE": "0",
        "CLASSIFICATION_TYPE": "U",
        "NORAD_CAT_ID": "54439",
        "ELEMENT_SET_NO": "999",
        "REV_AT_EPOCH": "8747",
        "BSTAR": "0.00039294000000",
        "MEAN_MOTION_DOT": "0.00000402",
        "MEAN_MOTION_DDOT": "0.0000000000000",
        "SEMIMAJOR_AXIS": "7356.374",
        "PERIOD": "104.654",
        "APOAPSIS": "1126.703",
        "PERIAPSIS": "829.775",
        "OBJECT_TYPE": "DEBRIS",
        "RCS_SIZE": "SMALL",
        "COUNTRY_CODE": "PRC",
        "LAUNCH_DATE": "2022-11-11",
        "SITE": "TSC",
        "DECAY_DATE": null,
        "FILE": "4427643",
        "GP_ID": "264740312",
        "TLE_LINE0": "0 CZ-6A DEB",
        "TLE_LINE1": "1 54439U 22151FP  24223.91720933  .00000402  00000-0  39294-3 0  9999",
        "TLE_LINE2": "2 54439  98.9493 199.2189 0201817 174.0873 186.2730 13.75963958 87476"
    }
]